H1 CPF 01  gfz 2021 09 28 00  7711 terrasarx 
H2 0702601  6201 31698    2021 09 28 00 59 42 2021 10 03 00 00 42   120 1 1  0 0 0
H9
10 0 59485  86382.000000  0      61362.877  -6889178.801    -63543.857
10 0 59486    102.000000  0    -116813.906  -6836186.330    839597.421
10 0 59486    222.000000  0    -290947.552  -6660610.513   1727956.241
10 0 59486    342.000000  0    -455875.586  -6365610.126   2585885.528
10 0 59486    462.000000  0    -606671.410  -5956543.578   3398276.234
10 0 59486    582.000000  0    -738768.803  -5440863.029   4150830.399
10 0 59486    702.000000  0    -848078.164  -4827970.096   4830315.649
10 0 59486    822.000000  0    -931090.616  -4129034.829   5424798.917
10 0 59486    942.000000  0    -984967.643  -3356782.791   5923855.188
10 0 59486   1062.000000  0   -1007614.806  -2525252.940   6318746.640
10 0 59486   1182.000000  0    -997737.126  -1649535.464   6602567.713
10 0 59486   1302.000000  0    -954876.195   -745495.550   6770359.733
10 0 59486   1422.000000  0    -879429.237    170515.852   6819193.193
10 0 59486   1542.000000  0    -772648.456   1081957.849   6748215.699
10 0 59486   1662.000000  0    -636619.859   1972397.905   6558666.132
10 0 59486   1782.000000  0    -474222.784   2825807.650   6253854.228
10 0 59486   1902.000000  0    -289071.014   3626851.630   5839106.506
10 0 59486   2022.000000  0     -85436.709   4361165.451   5321678.302
10 0 59486   2142.000000  0     131842.337   5015617.562   4710633.049
10 0 59486   2262.000000  0     357470.567   5578552.536   4016689.199
10 0 59486   2382.000000  0     585814.610   6040004.986   3252034.602
10 0 59486   2502.000000  0     811033.371   6391888.078   2430119.145
10 0 59486   2622.000000  0    1027217.529   6628148.391   1565412.270
10 0 59486   2742.000000  0    1228531.049   6744875.593    673142.850
10 0 59486   2862.000000  0    1409353.619   6740371.227   -230976.582
10 0 59486   2982.000000  0    1564419.735   6615172.767  -1131034.775
10 0 59486   3102.000000  0    1688950.222   6372032.975  -2011209.638
10 0 59486   3222.000000  0    1778773.732   6015855.997  -2856053.375
10 0 59486   3342.000000  0    1830435.004   5553591.070  -3650769.182
10 0 59486   3462.000000  0    1841287.334   4994086.378  -4381473.180
10 0 59486   3582.000000  0    1809567.027   4347907.276  -5035435.273
10 0 59486   3702.000000  0    1734448.148   3627125.713  -5601294.613
10 0 59486   3822.000000  0    1616077.504   2845086.439  -6069248.468
10 0 59486   3942.000000  0    1455588.205   2016153.515  -6431211.328
10 0 59486   4062.000000  0    1255093.011   1155444.837  -6680942.380
10 0 59486   4182.000000  0    1017658.004    278558.549  -6814143.491
10 0 59486   4302.000000  0     747255.743   -598705.670  -6828525.283
10 0 59486   4422.000000  0     448699.312  -1460625.459  -6723840.937
10 0 59486   4542.000000  0     127558.889  -2291829.374  -6501888.732
10 0 59486   4662.000000  0    -209938.614  -3077563.800  -6166486.386
10 0 59486   4782.000000  0    -557026.735  -3803952.207  -5723412.905
10 0 59486   4902.000000  0    -906529.883  -4458238.847  -5180318.385
10 0 59486   5022.000000  0   -1251006.269  -5029015.826  -4546603.989
10 0 59486   5142.000000  0   -1582901.486  -5506429.014  -3833270.339
10 0 59486   5262.000000  0   -1894709.303  -5882357.669  -3052735.741
10 0 59486   5382.000000  0   -2179136.144  -6150563.616  -2218626.853
10 0 59486   5502.000000  0   -2429265.882  -6306806.913  -1345544.313
10 0 59486   5622.000000  0   -2638720.836  -6348924.198   -448806.169
10 0 59486   5742.000000  0   -2801814.816  -6276865.714    455826.095
10 0 59486   5862.000000  0   -2913693.730  -6092689.330   1352432.102
10 0 59486   5982.000000  0   -2970460.172  -5800512.105   2225221.755
10 0 59486   6102.000000  0   -2969278.558  -5406419.710   3058822.414
10 0 59486   6222.000000  0   -2908457.852  -4918336.762   3838557.164
10 0 59486   6342.000000  0   -2787510.048  -4345861.781   4550708.393
10 0 59486   6462.000000  0   -2607183.986  -3700071.081   5182761.563
10 0 59486   6582.000000  0   -2369473.214  -2993296.047   5723625.055
10 0 59486   6702.000000  0   -2077596.919  -2238880.064   6163821.016
10 0 59486   6822.000000  0   -1735955.968  -1450922.030   6495646.632
10 0 59486   6942.000000  0   -1350064.411   -644008.750   6713304.101
10 0 59486   7062.000000  0    -926458.795    167058.034   6812994.268
10 0 59486   7182.000000  0    -472587.738    967531.805   6792978.136
10 0 59486   7302.000000  0       3318.996   1742988.894   6653606.197
10 0 59486   7422.000000  0     492399.634   2479588.272   6397312.708
10 0 59486   7542.000000  0     985324.864   3164318.399   6028575.272
10 0 59486   7662.000000  0    1472474.560   3785228.379   5553841.733
10 0 59486   7782.000000  0    1944124.467   4331640.437   4981423.418
10 0 59486   7902.000000  0    2390640.533   4794339.626   4321355.706
10 0 59486   8022.000000  0    2802676.152   5165735.434   3585225.945
10 0 59486   8142.000000  0    3171367.819   5439993.103   2785974.456
10 0 59486   8262.000000  0    3488527.712   5613135.144   1937666.921
10 0 59486   8382.000000  0    3746824.543   5683102.069   1055240.958
10 0 59486   8502.000000  0    3939948.284   5649775.575    154237.437
10 0 59486   8622.000000  0    4062757.064   5514961.779   -749482.059
10 0 59486   8742.000000  0    4111400.531   5282335.076  -1640022.504
10 0 59486   8862.000000  0    4083417.658   4957345.489  -2501742.823
10 0 59486   8982.000000  0    3977805.494   4547090.916  -3319537.215
10 0 59486   9102.000000  0    3795057.276   4060157.653  -4079103.684
10 0 59486   9222.000000  0    3537170.622   3506434.756  -4767193.124
10 0 59486   9342.000000  0    3207626.427   2896907.499  -5371836.843
10 0 59486   9462.000000  0    2811337.745   2243433.851  -5882547.556
10 0 59486   9582.000000  0    2354571.858   1558510.423  -6290491.314
10 0 59486   9702.000000  0    1844846.828    855032.284  -6588628.541
10 0 59486   9822.000000  0    1290806.432    146052.526  -6771823.396
10 0 59486   9942.000000  0     702074.330   -555455.440  -6836924.542
10 0 59486  10062.000000  0      89088.026  -1236830.788  -6782812.796
10 0 59486  10182.000000  0    -537081.550  -1885947.280  -6610416.755
10 0 59486  10302.000000  0   -1164924.535  -2491423.228  -6322699.788
10 0 59486  10422.000000  0   -1782698.987  -3042818.435  -5924614.958
10 0 59486  10542.000000  0   -2378645.250  -3530812.756  -5423028.180
10 0 59486  10662.000000  0   -2941206.578  -3947365.564  -4826612.126
10 0 59486  10782.000000  0   -3459253.438  -4285853.612  -4145707.865
10 0 59486  10902.000000  0   -3922304.987  -4541182.440  -3392155.206
10 0 59486  11022.000000  0   -4320744.006  -4709869.881  -2579095.019
10 0 59486  11142.000000  0   -4646020.730  -4790098.946  -1720744.542
10 0 59486  11262.000000  0   -4890840.007  -4781738.184   -832149.606
10 0 59486  11382.000000  0   -5049326.790  -4686328.553     71081.877
10 0 59486  11502.000000  0   -5117165.638  -4507036.867    973060.284
10 0 59486  11622.000000  0   -5091709.553  -4248575.337   1857903.062
10 0 59486  11742.000000  0   -4972054.549  -3917088.914   2710023.963
10 0 59486  11862.000000  0   -4759078.755  -3520014.128   3514415.809
10 0 59486  11982.000000  0   -4455445.468  -3065913.537   4256921.292
10 0 59486  12102.000000  0   -4065569.202  -2564289.044   4924486.538
10 0 59486  12222.000000  0   -3595546.661  -2025380.025   5505390.006
10 0 59486  12342.000000  0   -3053056.466  -1459952.435   5989445.507
10 0 59486  12462.000000  0   -2447228.239   -879081.746   6368177.966
10 0 59486  12582.000000  0   -1788482.792   -293933.201   6634966.816
10 0 59486  12702.000000  0   -1088347.828    284453.550   6785154.117
10 0 59486  12822.000000  0    -359254.939    845370.837   6816119.998
10 0 59486  12942.000000  0     385680.903   1378640.418   6727325.741
10 0 59486  13062.000000  0    1132896.644   1874798.054   6520322.821
10 0 59486  13182.000000  0    1868627.504   2325261.628   6198726.779
10 0 59486  13302.000000  0    2579159.604   2722479.703   5768158.070
10 0 59486  13422.000000  0    3251086.608   3060060.154   5236150.601
10 0 59486  13542.000000  0    3871566.172   3332876.181   4612025.505
10 0 59486  13662.000000  0    4428568.030   3537146.512   3906732.429
10 0 59486  13782.000000  0    4911114.058   3670489.778   3132663.850
10 0 59486  13902.000000  0    5309502.903   3731950.976   2303436.098
10 0 59486  14022.000000  0    5615510.241   3721996.878   1433647.741
10 0 59486  14142.000000  0    5822563.264   3642483.355    538617.473
10 0 59486  14262.000000  0    5925883.261   3496593.282   -365893.848
10 0 59486  14382.000000  0    5922592.072   3288746.762  -1263969.514
10 0 59486  14502.000000  0    5811780.450   3024486.298  -2139825.578
10 0 59486  14622.000000  0    5594535.971   2710340.516  -2978094.920
10 0 59486  14742.000000  0    5273931.679   2353669.981  -3764101.306
10 0 59486  14862.000000  0    4854976.302   1962498.519  -4484118.317
10 0 59486  14982.000000  0    4344524.855   1545334.265  -5125607.523
10 0 59486  15102.000000  0    3751155.776   1110986.209  -5677429.264
10 0 59486  15222.000000  0    3085018.207    668380.752  -6130027.149
10 0 59486  15342.000000  0    2357651.120    226381.064  -6475582.822
10 0 59486  15462.000000  0    1581780.034   -206386.334  -6708138.967
10 0 59486  15582.000000  0     771095.516   -621695.662  -6823692.595
10 0 59486  15702.000000  0     -59986.557  -1011874.364  -6820256.843
10 0 59486  15822.000000  0    -896575.739  -1369940.502  -6697889.715
10 0 59486  15942.000000  0   -1723566.929  -1689724.270  -6458693.995
10 0 59486  16062.000000  0   -2525907.323  -1965972.616  -6106785.077
10 0 59486  16182.000000  0   -3288864.262  -2194434.373  -5648227.027
10 0 59486  16302.000000  0   -3998292.605  -2371926.387  -5090939.991
10 0 59486  16422.000000  0   -4640899.000  -2496378.834  -4444575.170
99
